{"type": "FeatureCollection", "features": [{"type": "Feature", "properties": {"name": "United States"}, "geometry": {"type": "MultiPolygon", "coordinates": [[[[-122.84, 49.0], [-120.0, 49.0], [-117.0312, 49.0], [-116.0482, 49.0], [-113.0, 49.0], [-110.05, 49.0], [-107.05, 49.0], [-104.0483, 48.9999], [-100.65, 49.0], [-97.2287, 49.0007], [-95.1591, 49.0], [-95.1561, 49.3843], [-94.8176, 49.389], [-94.64, 48.84], [-94.3291, 48.6707], [-93.6309, 48.6093], [-92.61, 48.45], [-91.64, 48.14], [-90.83, 48.27], [-89.6, 48.01], [-89.2729, 48.0198], [-88.3781, 48.3029], [-87.4398, 47.94], [-86.462, 47.5533], [-85.6524, 47.2202], [-84.8761, 46.9001], [-84.7792, 46.6371], [-84.5437, 46.5387], [-84.6049, 46.4396], [-84.3367, 46.4088], [-84.1421, 46.5122], [-84.0919, 46.2754], [-83.8908, 46.1169], [-83.6161, 46.1169], [-83.4696, 45.9947], [-83.5929, 45.8169], [-82.5509, 45.3475], [-82.3378, 44.44], [-82.1376, 43.5711], [-82.43, 42.98], [-82.9, 42.43], [-83.12, 42.08], [-83.142, 41.9757], [-83.0298, 41.8328], [-82.6901, 41.6751], [-82.4393, 41.6751], [-81.2777, 42.209], [-80.2474, 42.3662], [-78.9394, 42.8636], [-78.92, 42.965], [-79.01, 43.27], [-79.1717, 43.4663], [-78.7203, 43.6251], [-77.7379, 43.6291], [-76.82, 43.6288], [-76.5, 44.0185], [-76.375, 44.0963], [-75.3182, 44.8165], [-74.867, 45.0005], [-73.3478, 45.0074], [-71.5051, 45.0082], [-71.405, 45.255], [-71.0848, 45.3052], [-70.66, 45.46], [-70.305, 45.915], [-70.0, 46.6931], [-69.2372, 47.4478], [-68.905, 47.185], [-68.2344, 47.3549], [-67.7905, 47.0664], [-67.7913, 45.7028], [-67.1374, 45.1375], [-66.9647, 44.8097], [-68.0325, 44.3252], [-69.06, 43.98], [-70.1162, 43.684], [-70.6455, 43.0902], [-70.8149, 42.8653], [-70.825, 42.335], [-70.495, 41.805], [-70.08, 41.78], [-70.185, 42.145], [-69.885, 41.9228], [-69.965, 41.6372], [-70.64, 41.475], [-71.1204, 41.4945], [-71.86, 41.32], [-72.295, 41.27], [-72.8764, 41.2206], [-73.71, 40.9311], [-72.2413, 41.1195], [-71.945, 40.93], [-73.345, 40.63], [-73.982, 40.628], [-73.9523, 40.7507], [-74.2567, 40.4735], [-73.9624, 40.4276], [-74.1784, 39.7093], [-74.906, 38.9395], [-74.9804, 39.1964], [-75.2, 39.2484], [-75.528, 39.4985], [-75.32, 38.96], [-75.0718, 38.782], [-75.0567, 38.4041], [-75.3775, 38.0155], [-75.9402, 37.2169], [-76.0313, 37.2566], [-75.722, 37.937], [-76.2329, 38.3192], [-76.35, 39.15], [-76.5427, 38.7176], [-76.3293, 38.0833], [-76.99, 38.24], [-76.3016, 37.9179], [-76.2587, 36.9664], [-75.9718, 36.8973], [-75.868, 36.5513], [-75.7275, 35.5507], [-76.3632, 34.8085], [-77.3976, 34.512], [-78.055, 33.9255], [-78.5543, 33.8613], [-79.0607, 33.4939], [-79.2036, 33.1584], [-80.3013, 32.5094], [-80.865, 32.0333], [-81.3363, 31.4405], [-81.4904, 30.73], [-81.3137, 30.0355], [-80.98, 29.18], [-80.5356, 28.4721], [-80.53, 28.04], [-80.0565, 26.88], [-80.088, 26.2058], [-80.1316, 25.8168], [-80.381, 25.2062], [-80.68, 25.08], [-81.1721, 25.2013], [-81.33, 25.64], [-81.71, 25.87], [-82.24, 26.73], [-82.7052, 27.495], [-82.8553, 27.8862], [-82.65, 28.55], [-82.93, 29.1], [-83.7096, 29.9366], [-84.1, 30.09], [-85.1088, 29.6362], [-85.2878, 29.6861], [-85.7731, 30.1526], [-86.4, 30.4], [-87.5304, 30.2743], [-88.4178, 30.3849], [-89.1805, 30.316], [-89.5938, 30.16], [-89.4137, 29.8942], [-89.43, 29.4886], [-89.2177, 29.2911], [-89.4082, 29.1596], [-89.7793, 29.3071], [-90.1546, 29.1174], [-90.8802, 29.1485], [-91.6268, 29.677], [-92.4991, 29.5523], [-93.2264, 29.7838], [-93.8484, 29.7136], [-94.69, 29.48], [-95.6003, 28.7386], [-96.594, 28.3075], [-97.14, 27.83], [-97.37, 27.38], [-97.38, 26.69], [-97.33, 26.21], [-97.14, 25.87], [-97.53, 25.84], [-98.24, 26.06], [-99.02, 26.37], [-99.3, 26.84], [-99.52, 27.54], [-100.11, 28.11], [-100.4558, 28.6961], [-100.9576, 29.3807], [-101.6624, 29.7793], [-102.48, 29.76], [-103.11, 28.97], [-103.94, 29.27], [-104.457, 29.572], [-104.7057, 30.1217], [-105.0374, 30.644], [-105.6316, 31.0838], [-106.1429, 31.4], [-106.5076, 31.7545], [-108.24, 31.7549], [-108.2419, 31.3422], [-109.035, 31.3419], [-111.0236, 31.3347], [-113.305, 32.0391], [-114.815, 32.5253], [-114.7214, 32.7208], [-115.9913, 32.6124], [-117.1278, 32.5353], [-117.2959, 33.0462], [-117.944, 33.6212], [-118.4106, 33.7409], [-118.5199, 34.0278], [-119.081, 34.078], [-119.4388, 34.3485], [-120.3678, 34.4471], [-120.6229, 34.6086], [-120.7443, 35.1569], [-121.7146, 36.1615], [-122.5475, 37.5518], [-122.512, 37.7834], [-122.9532, 38.1137], [-123.7272, 38.9517], [-123.8652, 39.767], [-124.3981, 40.3132], [-124.1789, 41.142], [-124.2137, 41.9996], [-124.5328, 42.766], [-124.1421, 43.7084], [-124.0205, 44.6159], [-123.8989, 45.5234], [-124.0796, 46.8648], [-124.3957, 47.7202], [-124.6872, 48.1844], [-124.5661, 48.3797], [-123.12, 48.04], [-122.5874, 47.096], [-122.34, 47.36], [-122.5, 48.18], [-122.84, 49.0]]], [[[-155.4021, 20.0798], [-155.2245, 19.993], [-155.0623, 19.8591], [-154.8074, 19.5087], [-154.8315, 19.4533], [-155.2222, 19.2397], [-155.5421, 19.0835], [-155.6882, 18.9162], [-155.9366, 19.0594], [-155.9081, 19.3389], [-156.0735, 19.7029], [-156.0237, 19.8142], [-155.8501, 19.9773], [-155.9191, 20.174], [-155.8611, 20.2672], [-155.7851, 20.2487], [-155.4021, 20.0798]]], [[[-155.9957, 20.764], [-156.0793, 20.644], [-156.4144, 20.5724], [-156.5867, 20.783], [-156.7017, 20.8643], [-156.7106, 20.9268], [-156.6126, 21.0125], [-156.2571, 20.9174], [-155.9957, 20.764]]], [[[-156.7582, 21.1768], [-156.7893, 21.0687], [-157.3252, 21.0978], [-157.2503, 21.2196], [-156.7582, 21.1768]]], [[[-158.0252, 21.717], [-157.9416, 21.6527], [-157.6528, 21.3222], [-157.707, 21.2644], [-157.7786, 21.2773], [-158.1267, 21.3124], [-158.2538, 21.5392], [-158.2927, 21.5791], [-158.0252, 21.717]]], [[[-159.3657, 22.2149], [-159.3451, 21.982], [-159.4637, 21.883], [-159.8005, 22.0653], [-159.7488, 22.1382], [-159.5962, 22.2362], [-159.3657, 22.2149]]], [[[-166.4678, 60.3842], [-165.6744, 60.2936], [-165.5792, 59.91], [-166.1928, 59.7544], [-166.8483, 59.9414], [-167.4553, 60.2131], [-166.4678, 60.3842]]], [[[-153.2287, 57.969], [-152.5648, 57.9014], [-152.1411, 57.5911], [-153.0063, 57.1158], [-154.0051, 56.7347], [-154.5164, 56.9927], [-154.671, 57.4612], [-153.7628, 57.8166], [-153.2287, 57.969]]], [[[-140.986, 69.712], [-140.986, 69.712], [-140.9925, 66.0], [-140.9978, 60.3064], [-140.013, 60.2768], [-139.039, 60.0], [-138.3409, 59.5621], [-137.4525, 58.905], [-136.4797, 59.4639], [-135.4758, 59.7878], [-134.945, 59.2706], [-134.2711, 58.8611], [-133.3556, 58.4103], [-132.7304, 57.6929], [-131.7078, 56.5521], [-130.0078, 55.9158], [-129.98, 55.285], [-130.5361, 54.8028], [-130.5361, 54.8028], [-130.5361, 54.8028], [-131.0858, 55.1789], [-131.9672, 55.4978], [-132.25, 56.37], [-133.5392, 57.1789], [-134.0781, 58.1231], [-135.0382, 58.1877], [-136.6281, 58.2122], [-137.8, 58.5], [-139.8678, 59.5378], [-140.8253, 59.7275], [-142.5744, 60.0844], [-143.9589, 59.9992], [-145.9256, 60.4586], [-147.1144, 60.8847], [-148.2243, 60.673], [-148.0181, 59.9783], [-148.5708, 59.9142], [-149.7279, 59.7057], [-150.6082, 59.3682], [-151.7164, 59.1558], [-151.8594, 59.745], [-151.4097, 60.7258], [-150.3469, 61.0336], [-150.6211, 61.2844], [-151.8958, 60.7272], [-152.5783, 60.0617], [-154.0192, 59.3503], [-153.2875, 58.8647], [-154.2325, 58.1464], [-155.3075, 57.7278], [-156.3083, 57.4228], [-156.5561, 56.98], [-158.1172, 56.4636], [-158.4333, 55.9942], [-159.6033, 55.5667], [-160.2897, 55.6436], [-161.223, 55.3647], [-162.2378, 55.0242], [-163.0694, 54.6897], [-164.7856, 54.4042], [-164.9422, 54.5722], [-163.8483, 55.0394], [-162.87, 55.348], [-161.8042, 55.895], [-160.5636, 56.0081], [-160.0706, 56.4181], [-158.6844, 57.0167], [-158.4611, 57.2169], [-157.7228, 57.57], [-157.5503, 58.3283], [-157.0417, 58.9189], [-158.1947, 58.6158], [-158.5172, 58.7878], [-159.0586, 58.4242], [-159.7117, 58.9314], [-159.9813, 58.5725], [-160.3553, 59.0711], [-161.355, 58.6708], [-161.9689, 58.6717], [-162.055, 59.2669], [-161.8742, 59.6336], [-162.5181, 59.9897], [-163.8183, 59.7981], [-164.6622, 60.2675], [-165.3464, 60.5075], [-165.3508, 61.0739], [-166.1214, 61.5], [-165.7345, 62.075], [-164.9192, 62.6331], [-164.5625, 63.1464], [-163.7533, 63.2194], [-163.0672, 63.0595], [-162.2606, 63.5419], [-161.5344, 63.4558], [-160.7725, 63.7661], [-160.9583, 64.2228], [-161.5181, 64.4028], [-160.7778, 64.7886], [-161.3919, 64.7772], [-162.453, 64.5594], [-162.7578, 64.3386], [-163.5464, 64.5592], [-164.9608, 64.4469], [-166.4253, 64.6867], [-166.845, 65.0889], [-168.1106, 65.67], [-166.7053, 66.0883], [-164.4747, 66.5767], [-163.6525, 66.5767], [-163.7886, 66.0772], [-161.6778, 66.1161], [-162.4897, 66.7356], [-163.7197, 67.1164], [-164.431, 67.6163], [-165.3903, 68.0428], [-166.7644, 68.3589], [-166.2047, 68.883], [-164.4308, 68.9155], [-163.1686, 69.3711], [-162.9306, 69.8581], [-161.9089, 70.3333], [-160.9348, 70.4477], [-159.0392, 70.8916], [-158.1197, 70.8247], [-156.5808, 71.3578], [-155.0678, 71.1478], [-154.3442, 70.6964], [-153.9, 70.89], [-152.21, 70.83], [-152.27, 70.6], [-150.74, 70.43], [-149.72, 70.53], [-147.6134, 70.214], [-145.69, 70.12], [-144.92, 69.99], [-143.5894, 70.1525], [-142.0725, 69.8519], [-140.986, 69.712], [-140.986, 69.712]]], [[[-171.7317, 63.7825], [-171.1144, 63.5922], [-170.4911, 63.695], [-169.6825, 63.4311], [-168.6894, 63.2975], [-168.7719, 63.1886], [-169.5294, 62.9769], [-170.2906, 63.1944], [-170.6714, 63.3758], [-171.5531, 63.3178], [-171.7911, 63.4058], [-171.7317, 63.7825]]]]}}, {"type": "Feature", "properties": {"name": "Brazil"}, "geometry": {"type": "Polygon", "coordinates": [[[-53.3737, -33.7684], [-53.6505, -33.202], [-53.2096, -32.7277], [-53.788, -32.0472], [-54.5725, -31.4945], [-55.6015, -30.8539], [-55.9732, -30.8831], [-56.976, -30.1097], [-57.6251, -30.2163], [-56.2909, -28.8528], [-55.1623, -27.8819], [-54.4907, -27.4748], [-53.6487, -26.9235], [-53.6283, -26.1249], [-54.13, -25.5476], [-54.6253, -25.7393], [-54.4289, -25.1622], [-54.2935, -24.5708], [-54.293, -24.021], [-54.6528, -23.8396], [-55.0279, -24.0013], [-55.4007, -23.9569], [-55.5176, -23.572], [-55.6107, -22.6556], [-55.798, -22.3569], [-56.4733, -22.0863], [-56.8815, -22.2822], [-57.9372, -22.0902], [-57.8707, -20.7327], [-58.1664, -20.1767], [-57.8538, -19.97], [-57.95, -19.4], [-57.676, -18.9618], [-57.4984, -18.1742], [-57.7346, -17.5525], [-58.2808, -17.2717], [-58.3881, -16.8771], [-58.2412, -16.2996], [-60.1584, -16.2583], [-60.543, -15.0939], [-60.2511, -15.0772], [-60.2643, -14.646], [-60.4592, -14.354], [-60.5033, -13.776], [-61.0841, -13.4794], [-61.7132, -13.4892], [-62.1271, -13.1988], [-62.8031, -13.0007], [-63.1965, -12.627], [-64.3164, -12.462], [-65.4023, -11.5663], [-65.3219, -10.8959], [-65.4448, -10.5115], [-65.3384, -9.762], [-66.6469, -9.9313], [-67.1738, -10.3068], [-68.0482, -10.7121], [-68.2713, -11.0145], [-68.7862, -11.0364], [-69.5297, -10.9517], [-70.0938, -11.124], [-70.5487, -11.0091], [-70.4819, -9.4901], [-71.3024, -10.0794], [-72.1849, -10.0536], [-72.563, -9.5202], [-73.2267, -9.4622], [-73.0154, -9.0328], [-73.5711, -8.4244], [-73.9872, -7.5238], [-73.7234, -7.341], [-73.7245, -6.9186], [-73.12, -6.6299], [-73.2197, -6.0892], [-72.9645, -5.7413], [-72.8919, -5.2746], [-71.7484, -4.594], [-70.9288, -4.4016], [-70.7948, -4.2513], [-69.8936, -4.2982], [-69.4441, -1.5563], [-69.4205, -1.1226], [-69.5771, -0.55], [-70.0207, -0.1852], [-70.0156, 0.5414], [-69.4524, 0.7062], [-69.2524, 0.6027], [-69.2186, 0.9857], [-69.8046, 1.0891], [-69.817, 1.7148], [-67.8686, 1.6925], [-67.5378, 2.0372], [-67.26, 1.72], [-67.065, 1.1301], [-66.8763, 1.2534], [-66.3258, 0.7245], [-65.5483, 0.7893], [-65.3547, 1.0953], [-64.611, 1.3287], [-64.1993, 1.4929], [-64.0831, 1.9164], [-63.3688, 2.2009], [-63.4229, 2.4111], [-64.27, 2.497], [-64.4088, 3.1268], [-64.3685, 3.7972], [-64.8161, 4.0564], [-64.6287, 4.1485], [-63.8883, 4.0205], [-63.0932, 3.7706], [-62.8045, 4.007], [-62.0854, 4.1621], [-60.9669, 4.5365], [-60.6012, 4.9181], [-60.7336, 5.2003], [-60.2137, 5.2445], [-59.981, 5.0141], [-60.111, 4.575], [-59.7674, 4.4235], [-59.538, 3.9588], [-59.8154, 3.6065], [-59.9745, 2.7552], [-59.7185, 2.2496], [-59.646, 1.7869], [-59.0309, 1.3177], [-58.54, 1.2681], [-58.4295, 1.4639], [-58.1135, 1.5072], [-57.661, 1.6826], [-57.3358, 1.9485], [-56.7827, 1.8637], [-56.5394, 1.8995], [-55.9957, 1.8177], [-55.9056, 2.022], [-56.0733, 2.2208], [-55.9733, 2.5104], [-55.5698, 2.4215], [-55.0976, 2.5237], [-54.5248, 2.3118], [-54.0881, 2.1056], [-53.7785, 2.3767], [-53.5548, 2.3349], [-53.4185, 2.0534], [-52.9397, 2.1249], [-52.5564, 2.5047], [-52.2493, 3.2411], [-51.6578, 4.1562], [-51.3171, 4.2035], [-51.0698, 3.6504], [-50.5089, 1.9016], [-49.9741, 1.7365], [-49.9471, 1.0462], [-50.6993, 0.223], [-50.3882, -0.0784], [-48.6206, -0.2355], [-48.5845, -1.2378], [-47.825, -0.5816], [-46.5666, -0.941], [-44.9057, -1.5517], [-44.4176, -2.1378], [-44.5816, -2.6913], [-43.4188, -2.3831], [-41.4727, -2.912], [-39.9787, -2.8731], [-38.5004, -3.7007], [-37.2233, -4.8209], [-36.4529, -5.1094], [-35.5978, -5.1495], [-35.2354, -5.4649], [-34.896, -6.7382], [-34.73, -7.3432], [-35.1282, -8.9964], [-35.637, -9.6493], [-37.0465, -11.0407], [-37.6836, -12.1712], [-38.4239, -13.0381], [-38.6739, -13.0577], [-38.9533, -13.7934], [-38.8823, -15.6671], [-39.1611, -17.2084], [-39.2673, -17.8677], [-39.5835, -18.2623], [-39.7608, -19.5991], [-40.7747, -20.9045], [-40.9448, -21.9373], [-41.7542, -22.3707], [-41.9883, -22.9701], [-43.0747, -22.9677], [-44.6478, -23.352], [-45.3521, -23.7968], [-46.4721, -24.089], [-47.649, -24.8852], [-48.4955, -25.877], [-48.641, -26.6237], [-48.4747, -27.1759], [-48.6615, -28.1861], [-48.8885, -28.6741], [-49.5873, -29.2245], [-50.6969, -30.9845], [-51.5762, -31.7777], [-52.2561, -32.2454], [-52.7121, -33.1966], [-53.3737, -33.7684]]]}}, {"type": "Feature", "properties": {"name": "Germany"}, "geometry": {"type": "Polygon", "coordinates": [[[14.1197, 53.757], [14.3533, 53.2482], [14.0745, 52.9813], [14.4376, 52.6249], [14.685, 52.0899], [14.6071, 51.7452], [15.017, 51.1067], [14.5707, 51.0023], [14.307, 51.1173], [14.0562, 50.9269], [13.3381, 50.7332], [12.9668, 50.4841], [12.2401, 50.2663], [12.4152, 49.9691], [12.521, 49.5474], [13.0313, 49.3071], [13.5959, 48.8772], [13.2434, 48.4161], [12.8841, 48.2891], [13.0259, 47.6376], [12.9326, 47.4676], [12.6208, 47.6724], [12.1414, 47.7031], [11.4264, 47.5238], [10.5445, 47.5664], [10.4021, 47.3025], [9.8961, 47.5802], [9.5942, 47.5251], [8.5226, 47.8308], [8.3173, 47.6136], [7.4668, 47.6206], [7.5937, 48.333], [8.0993, 49.0178], [6.6582, 49.202], [6.1863, 49.4638], [6.2428, 49.9022], [6.0431, 50.1281], [6.1567, 50.8037], [5.9887, 51.8516], [6.5894, 51.852], [6.8429, 52.2284], [7.0921, 53.144], [6.9051, 53.4822], [7.1004, 53.6939], [7.9362, 53.7483], [8.1217, 53.5278], [8.8007, 54.0208], [8.5721, 54.3956], [8.5262, 54.9627], [9.282, 54.8309], [9.9219, 54.9831], [9.9396, 54.5966], [10.9501, 54.3636], [10.9395, 54.0087], [11.9563, 54.1965], [12.5184, 54.4704], [13.6475, 54.0755], [14.1197, 53.757]]]}}, {"type": "Feature", "properties": {"name": "New Zealand"}, "geometry": {"type": "MultiPolygon", "coordinates": [[[[176.8858, -40.066], [176.508, -40.6048], [176.0124, -41.2896], [175.2396, -41.6883], [175.0679, -41.4259], [174.651, -41.2818], [175.2276, -40.4592], [174.9002, -39.9089], [173.824, -39.5089], [173.8523, -39.1466], [174.5748, -38.7977], [174.7435, -38.0278], [174.697, -37.3811], [174.292, -36.7111], [174.319, -36.5348], [173.841, -36.122], [173.0542, -35.2371], [172.636, -34.5291], [173.007, -34.4507], [173.5513, -35.0062], [174.3294, -35.2655], [174.612, -36.1564], [175.3366, -37.2091], [175.3576, -36.5262], [175.8089, -36.7989], [175.9585, -37.5554], [176.7632, -37.8813], [177.4388, -37.9612], [178.0104, -37.5798], [178.5171, -37.6954], [178.2747, -38.5828], [177.9705, -39.1663], [177.207, -39.1458], [176.94, -39.4497], [177.0329, -39.8799], [176.8858, -40.066]]], [[[169.6678, -43.5553], [170.5249, -43.0317], [171.1251, -42.5128], [171.5697, -41.7674], [171.9487, -41.5144], [172.0972, -40.9561], [172.7986, -40.494], [173.0204, -40.9191], [173.2472, -41.332], [173.9584, -40.9267], [174.2476, -41.3492], [174.2485, -41.77], [173.8764, -42.2332], [173.2227, -42.97], [172.7112, -43.3723], [173.0801, -43.8533], [172.3086, -43.8657], [171.4529, -44.2425], [171.1851, -44.8971], [170.6167, -45.9089], [169.8314, -46.3558], [169.3323, -46.6412], [168.4114, -46.6199], [167.7637, -46.2902], [166.6769, -46.2199], [166.5091, -45.8527], [167.0464, -45.1109], [168.3038, -44.124], [168.9494, -43.9358], [169.6678, -43.5553]]]]}}, {"type": "Feature", "properties": {"name": "Australia"}, "geometry": {"type": "MultiPolygon", "coordinates": [[[[147.6893, -40.8083], [148.2891, -40.8754], [148.3599, -42.0624], [148.0173, -42.407], [147.9141, -43.2115], [147.5646, -42.9377], [146.8703, -43.6346], [146.6633, -43.5809], [146.0484, -43.5497], [145.4319, -42.6938], [145.2951, -42.0336], [144.7181, -41.1626], [144.7438, -40.704], [145.398, -40.7925], [146.3641, -41.1377], [146.9086, -41.0005], [147.6893, -40.8083]]], [[[126.1487, -32.216], [125.0886, -32.7288], [124.2216, -32.9595], [124.0289, -33.4838], [123.6597, -33.8902], [122.811, -33.9145], [122.1831, -34.0034], [121.2992, -33.821], [120.5803, -33.9302], [119.8937, -33.9761], [119.2989, -34.5094], [119.0073, -34.4641], [118.5057, -34.7468], [118.025, -35.0647], [117.2955, -35.0255], [116.6251, -35.0251], [115.5643, -34.3864], [115.0268, -34.1965], [115.0486, -33.6234], [115.5451, -33.4873], [115.7147, -33.2596], [115.6794, -32.9004], [115.8016, -32.2051], [115.6896, -31.6124], [115.1609, -30.6016], [114.997, -30.0307], [115.04, -29.4611], [114.642, -28.8102], [114.6165, -28.5164], [114.1736, -28.1181], [114.0489, -27.3348], [113.4775, -26.5431], [113.339, -26.1165], [113.7784, -26.549], [113.441, -25.6213], [113.9369, -25.9112], [114.2329, -26.2984], [114.2162, -25.7863], [113.7213, -24.9989], [113.6253, -24.684], [113.3935, -24.3848], [113.502, -23.8063], [113.707, -23.5602], [113.8434, -23.06], [113.7366, -22.4755], [114.1498, -21.7559], [114.2253, -22.5175], [114.6478, -21.8295], [115.4602, -21.4952], [115.9474, -21.0687], [116.7116, -20.7017], [117.1663, -20.6236], [117.4415, -20.7469], [118.2296, -20.3742], [118.8361, -20.2633], [118.9878, -20.0442], [119.2525, -19.9529], [119.8052, -19.9765], [120.8562, -19.6837], [121.3999, -19.2398], [121.6551, -18.7053], [122.2417, -18.1976], [122.2866, -17.7986], [122.3128, -17.255], [123.0126, -16.4052], [123.4338, -17.2686], [123.8593, -17.069], [123.5032, -16.5965], [123.8171, -16.1113], [124.2583, -16.3279], [124.3797, -15.5671], [124.9262, -15.0751], [125.1673, -14.6804], [125.6701, -14.5101], [125.6858, -14.2307], [126.1251, -14.3473], [126.1428, -14.096], [126.5826, -13.9528], [127.0659, -13.818], [127.8046, -14.2769], [128.3597, -14.8692], [128.9855, -14.876], [129.6215, -14.9698], [129.4096, -14.4207], [129.8886, -13.6187], [130.3395, -13.3574], [130.1835, -13.1075], [130.6178, -12.5364], [131.2235, -12.1836], [131.7351, -12.3025], [132.5753, -12.114], [132.5572, -11.603], [131.8247, -11.2738], [132.3572, -11.1285], [133.0196, -11.3764], [133.5508, -11.7865], [134.3931, -12.0424], [134.6786, -11.9412], [135.2985, -12.2486], [135.8827, -11.9623], [136.2584, -12.0493], [136.4925, -11.8572], [136.9516, -12.352], [136.6851, -12.8872], [136.3054, -13.2912], [135.9618, -13.3245], [136.0776, -13.7243], [135.7838, -14.224], [135.4287, -14.7154], [135.5002, -14.9977], [136.2952, -15.5503], [137.0654, -15.8708], [137.5805, -16.2151], [138.3032, -16.8076], [138.5852, -16.8066], [139.1085, -17.0627], [139.2606, -17.3716], [140.2152, -17.7108], [140.8755, -17.3691], [141.0711, -16.832], [141.2741, -16.3889], [141.3982, -15.8405], [141.7022, -15.0449], [141.5634, -14.5613], [141.6355, -14.2704], [141.5199, -13.6981], [141.6509, -12.9447], [141.8427, -12.7415], [141.687, -12.4076], [141.9286, -11.8775], [142.1185, -11.328], [142.1437, -11.0427], [142.5153, -10.6682], [142.7973, -11.1574], [142.8668, -11.7847], [143.1159, -11.9056], [143.1586, -12.3257], [143.5221, -12.8344], [143.5972, -13.4004], [143.5618, -13.7637], [143.9221, -14.5483], [144.5637, -14.1712], [144.8949, -14.5945], [145.3747, -14.985], [145.272, -15.4282], [145.4853, -16.2857], [145.637, -16.7849], [145.8889, -16.9069], [146.1603, -17.7617], [146.0637, -18.2801], [146.3875, -18.9583], [147.4711, -19.4807], [148.1776, -19.9559], [148.8484, -20.3912], [148.7175, -20.6335], [149.2894, -21.2605], [149.6783, -22.3425], [150.0774, -22.1228], [150.4829, -22.5561], [150.7273, -22.4024], [150.8996, -23.4622], [151.6092, -24.0763], [152.0735, -24.4579], [152.8552, -25.2675], [153.1362, -26.0712], [153.1619, -26.6413], [153.0929, -27.2603], [153.5695, -28.1101], [153.5121, -28.9951], [153.3391, -29.4582], [153.0692, -30.3502], [153.0896, -30.9236], [152.8916, -31.6404], [152.45, -32.55], [151.7091, -33.0413], [151.344, -33.816], [151.0106, -34.3104], [150.7141, -35.1735], [150.3282, -35.6719], [150.0752, -36.4202], [149.9461, -37.1091], [149.9973, -37.4253], [149.4239, -37.7727], [148.3046, -37.8091], [147.3817, -38.2192], [146.9221, -38.6065], [146.3179, -39.0358], [145.4897, -38.5938], [144.877, -38.4174], [145.0322, -37.8962], [144.4857, -38.0853], [143.61, -38.8095], [142.7454, -38.5383], [142.1783, -38.38], [141.6066, -38.3085], [140.6386, -38.0193], [139.9922, -37.4029], [139.8066, -36.6436], [139.5741, -36.1384], [139.0828, -35.7328], [138.1207, -35.6123], [138.4495, -35.1273], [138.2076, -34.3847], [137.7192, -35.0768], [136.8294, -35.2605], [137.3524, -34.7073], [137.5039, -34.1303], [137.8901, -33.6405], [137.8103, -32.9], [136.9968, -33.7528], [136.3721, -34.0948], [135.989, -34.8901], [135.2082, -34.4787], [135.2392, -33.948], [134.6134, -33.2228], [134.0859, -32.8481], [134.2739, -32.6172], [132.9908, -32.0112], [132.2881, -31.9826], [131.3263, -31.4958], [129.5358, -31.5904], [128.2409, -31.9485], [127.1029, -32.2823], [126.1487, -32.216]]]]}}, {"type": "Feature", "properties": {"name": "China"}, "geometry": {"type": "MultiPolygon", "coordinates": [[[[109.4752, 18.1977], [108.6552, 18.5077], [108.6262, 19.3679], [109.1191, 19.821], [110.2116, 20.1013], [110.7866, 20.0775], [111.0101, 19.6959], [110.5706, 19.2559], [110.3392, 18.6784], [109.4752, 18.1977]]], [[[80.26, 42.35], [80.1801, 42.9201], [80.8662, 43.1804], [79.9661, 44.9175], [81.9471, 45.317], [82.4589, 45.5397], [83.1805, 47.33], [85.1643, 47.001], [85.7205, 47.453], [85.7682, 48.4558], [86.5988, 48.5492], [87.36, 49.215], [87.7513, 49.2972], [88.0138, 48.5995], [88.8543, 48.0691], [90.2808, 47.6935], [90.9708, 46.8881], [90.5858, 45.7197], [90.9455, 45.2861], [92.1339, 45.1151], [93.4807, 44.9755], [94.6889, 44.3523], [95.3069, 44.2413], [95.7625, 43.3194], [96.3494, 42.7256], [97.4518, 42.7489], [99.5158, 42.5247], [100.8459, 42.6638], [101.833, 42.5149], [103.3123, 41.9075], [104.5223, 41.9083], [104.965, 41.5974], [106.1293, 42.1343], [107.7448, 42.4815], [109.2436, 42.5194], [110.4121, 42.8712], [111.1297, 43.4068], [111.8296, 43.7431], [111.6677, 44.0732], [111.3484, 44.4574], [111.8733, 45.1021], [112.4361, 45.0116], [113.4639, 44.8089], [114.4603, 45.3398], [115.9851, 45.7272], [116.7179, 46.3882], [117.4217, 46.6727], [118.8743, 46.8054], [119.6633, 46.6927], [119.7728, 47.0481], [118.8666, 47.7471], [118.0641, 48.0667], [117.2955, 47.6977], [116.309, 47.8534], [115.7428, 47.7265], [115.4853, 48.1354], [116.1918, 49.1346], [116.6788, 49.8885], [117.8792, 49.511], [119.2885, 50.1429], [119.2794, 50.5829], [120.1821, 51.6435], [120.7382, 51.9641], [120.7258, 52.5162], [120.1771, 52.7539], [121.0031, 53.2514], [122.2457, 53.4317], [123.5715, 53.4588], [125.0682, 53.161], [125.9463, 52.7928], [126.5644, 51.7843], [126.9392, 51.3539], [127.2875, 50.7398], [127.6574, 49.7603], [129.3978, 49.4406], [130.5823, 48.7297], [130.9873, 47.7901], [132.5067, 47.789], [133.3736, 48.1834], [135.0263, 48.4782], [134.5008, 47.5784], [134.1123, 47.2125], [133.7696, 46.1169], [133.0971, 45.1441], [131.8835, 45.3212], [131.0252, 44.968], [131.2886, 44.1115], [131.1447, 42.93], [130.6339, 42.903], [130.64, 42.395], [129.9943, 42.9854], [129.5967, 42.425], [128.0522, 41.9943], [128.2084, 41.4668], [127.3438, 41.5032], [126.8691, 41.8166], [126.182, 41.1073], [125.0799, 40.5698], [124.2656, 39.9285], [122.8676, 39.6378], [122.1314, 39.1705], [121.0546, 38.8975], [121.586, 39.3609], [121.3768, 39.7503], [122.1686, 40.4224], [121.6404, 40.9464], [120.7686, 40.5934], [119.6396, 39.8981], [119.0235, 39.2523], [118.0427, 39.2043], [117.5327, 38.7376], [118.0597, 38.0615], [118.8782, 37.8973], [118.9116, 37.4485], [119.7028, 37.1564], [120.8235, 37.8704], [121.7113, 37.4811], [122.3579, 37.4545], [122.52, 36.9306], [121.1042, 36.6513], [120.637, 36.1114], [119.6646, 35.6098], [119.1512, 34.9099], [120.2275, 34.3603], [120.6204, 33.3767], [121.229, 32.4603], [121.9081, 31.6922], [121.8919, 30.9494], [121.2643, 30.6763], [121.5035, 30.1429], [122.0921, 29.8325], [121.9384, 29.018], [121.6844, 28.2255], [121.1257, 28.1357], [120.3955, 27.0532], [119.5855, 25.7408], [118.6569, 24.5474], [117.2816, 23.6245], [115.8907, 22.7829], [114.7638, 22.6681], [114.1525, 22.2238], [113.8068, 22.5483], [113.2411, 22.0514], [111.8436, 21.5505], [110.7855, 21.3971], [110.444, 20.341], [109.8899, 20.2825], [109.6277, 21.0082], [109.8645, 21.3951], [108.5228, 21.7152], [108.0502, 21.5524], [107.0434, 21.8119], [106.5673, 22.2182], [106.7254, 22.7943], [105.8112, 22.9769], [105.3292, 23.3521], [104.4769, 22.8192], [103.5045, 22.7038], [102.707, 22.7088], [102.1704, 22.4648], [101.652, 22.3182], [101.8031, 21.1744], [101.27, 21.2017], [101.18, 21.4366], [101.15, 21.85], [100.4165, 21.5588], [99.9835, 21.7429], [99.2409, 22.1183], [99.532, 22.949], [98.8987, 23.1427], [98.6603, 24.0633], [97.6047, 23.8974], [97.7246, 25.0836], [98.6718, 25.9187], [98.7121, 26.7435], [98.6827, 27.5088], [98.2462, 27.7472], [97.912, 28.3359], [97.3271, 28.2616], [96.2488, 28.411], [96.5866, 28.831], [96.1177, 29.4528], [95.4048, 29.0317], [94.566, 29.2774], [93.4133, 28.6406], [92.5031, 27.8969], [91.6967, 27.7717], [91.2589, 28.0406], [90.7305, 28.065], [90.0158, 28.2964], [89.4758, 28.0428], [88.8142, 27.2993], [88.7303, 28.0869], [88.1204, 27.8765], [86.9545, 27.9743], [85.8233, 28.2036], [85.0116, 28.6428], [84.2346, 28.8399], [83.899, 29.3202], [83.3371, 29.4637], [82.3275, 30.1153], [81.5258, 30.4227], [81.1113, 30.1835], [79.7214, 30.8827], [78.7389, 31.5159], [78.4584, 32.6182], [79.1761, 32.4838], [79.2089, 32.9944], [78.8111, 33.5062], [78.9123, 34.3219], [77.8375, 35.494], [76.1928, 35.8984], [75.8969, 36.6668], [75.158, 37.133], [74.98, 37.42], [74.83, 37.99], [74.8648, 38.3788], [74.2575, 38.6065], [73.9289, 38.5058], [73.6754, 39.4312], [73.96, 39.66], [73.8222, 39.894], [74.7769, 40.3664], [75.4678, 40.5621], [76.5264, 40.4279], [76.9045, 41.0665], [78.1872, 41.1853], [78.5437, 41.5822], [80.1194, 42.1239], [80.26, 42.35]]]]}}]}